{"type": "FeatureCollection", "features": [ {"type": "Feature", "properties": {"norad_id": 66608, "name": "STARLINK-36036", "group": "last-30-days", "lat": -9.638799371104893, "lon": 172.4278174422354, "alt_km": 415.61921392007025, "timestamp": "2025-12-14T09:36:21.779166+00:00", "meta": {"OBJECT_NAME": "STARLINK-36036", "OBJECT_ID": "2025-270W", "EPOCH": "2025-12-13T14:00:03.000384", "MEAN_MOTION": 15.50510924, "ECCENTRICITY": 0.00014476, "INCLINATION": 43, "RA_OF_ASC_NODE": 187.7082, "ARG_OF_PERICENTER": 260.8071, "MEAN_ANOMALY": 199.6793, "EPHEMERIS_TYPE": 0, "CLASSIFICATION_TYPE": "U", "NORAD_CAT_ID": 66608, "ELEMENT_SET_NO": 999, "REV_AT_EPOCH": 437, "BSTAR": 0.0013122004, "MEAN_MOTION_DOT": 0.00077214, "MEAN_MOTION_DDOT": 0}, "tle": {"line1": "1 66608U 25270W   25347.58336806  .00077214  00000+0  13122-2 0  9993", "line2": "2 66608  43.0000 187.7082 0001447 260.8071 199.6793 15.50510924  4378"}}, "geometry": {"type": "Point", "coordinates": [172.4278174422354, -9.638799371104893]}}, {"type": "Feature", "properties": {"norad_id": 66609, "name": "STARLINK-36034", "group": "last-30-days", "lat": -8.342672678432484, "lon": 173.8704048625488, "alt_km": 415.55092237792996, "timestamp": "2025-12-14T09:36:21.779178+00:00", "meta": {"OBJECT_NAME": "STARLINK-36034", "OBJECT_ID": "2025-270X", "EPOCH": "2025-12-13T14:00:03.000384", "MEAN_MOTION": 15.50512737, "ECCENTRICITY": 0.00015764, "INCLINATION": 42.9999, "RA_OF_ASC_NODE": 187.704, "ARG_OF_PERICENTER": 256.4645, "MEAN_ANOMALY": 205.9364, "EPHEMERIS_TYPE": 0, "CLASSIFICATION_TYPE": "U", "NORAD_CAT_ID": 66609, "ELEMENT_SET_NO": 999, "REV_AT_EPOCH": 437, "BSTAR": 0.0013699153, "MEAN_MOTION_DOT": 0.00080666, "MEAN_MOTION_DDOT": 0}, "tle": {"line1": "1 66609U 25270X   25347.58336806  .00080666  00000+0  13699-2 0  9998", "line2": "2 66609  42.9999 187.7040 0001576 256.4645 205.9364 15.50512737  4378"}}, "geometry": {"type": "Point", "coordinates": [173.8704048625488, -8.342672678432484]}}, {"type": "Feature", "properties": {"norad_id": 66610, "name": "STARLINK-35680", "group": "last-30-days", "lat": -7.053247132898665, "lon": 175.28943732904565, "alt_km": 415.2105320442952, "timestamp": "2025-12-14T09:36:21.779187+00:00", "meta": {"OBJECT_NAME": "STARLINK-35680", "OBJECT_ID": "2025-270Y", "EPOCH": "2025-12-13T14:00:03.000384", "MEAN_MOTION": 15.50511685, "ECCENTRICITY": 0.00015073, "INCLINATION": 43, "RA_OF_ASC_NODE": 187.6988, "ARG_OF_PERICENTER": 270.3325, "MEAN_ANOMALY": 193.9874, "EPHEMERIS_TYPE": 0, "CLASSIFICATION_TYPE": "U", "NORAD_CAT_ID": 66610, "ELEMENT_SET_NO": 999, "REV_AT_EPOCH": 464, "BSTAR": 0.0013527985, "MEAN_MOTION_DOT": 0.00079641, "MEAN_MOTION_DDOT": 0}, "tle": {"line1": "1 66610U 25270Y   25347.58336806  .00079641  00000+0  13528-2 0  9992", "line2": "2 66610  43.0000 187.6988 0001507 270.3325 193.9874 15.50511685  4642"}}, "geometry": {"type": "Point", "coordinates": [175.28943732904565, -7.053247132898665]}}, {"type": "Feature", "properties": {"norad_id": 66611, "name": "STARLINK-35583", "group": "last-30-days", "lat": -5.748948864281955, "lon": 176.71259206692295, "alt_km": 415.13468314487636, "timestamp": "2025-12-14T09:36:21.779199+00:00", "meta": {"OBJECT_NAME": "STARLINK-35583", "OBJECT_ID": "2025-270Z", "EPOCH": "2025-12-13T14:00:03.000384", "MEAN_MOTION": 15.50507932, "ECCENTRICITY": 0.00015562, "INCLINATION": 42.9999, "RA_OF_ASC_NODE": 187.6942, "ARG_OF_PERICENTER": 266.1559, "MEAN_ANOMALY": 200.0856, "EPHEMERIS_TYPE": 0, "CLASSIFICATION_TYPE": "U", "NORAD_CAT_ID": 66611, "ELEMENT_SET_NO": 999, "REV_AT_EPOCH": 464, "BSTAR": 0.0014664104, "MEAN_MOTION_DOT": 0.00086422, "MEAN_MOTION_DDOT": 0}, "tle": {"line1": "1 66611U 25270Z   25347.58336806  .00086422  00000+0  14664-2 0  9990", "line2": "2 66611  42.9999 187.6942 0001556 266.1559 200.0856 15.50507932  4644"}}, "geometry": {"type": "Point", "coordinates": [176.71259206692295, -5.748948864281955]}}, {"type": "Feature", "properties": {"norad_id": 66612, "name": "STARLINK-36039", "group": "last-30-days", "lat": -38.48419258492026, "lon": 124.49907390863696, "alt_km": 450.6194420243073, "timestamp": "2025-12-14T09:36:21.779209+00:00", "meta": {"OBJECT_NAME": "STARLINK-36039", "OBJECT_ID": "2025-270AA", "EPOCH": "2025-12-13T14:00:03.000384", "MEAN_MOTION": 15.41823084, "ECCENTRICITY": 0.00019389, "INCLINATION": 42.9995, "RA_OF_ASC_NODE": 187.76, "ARG_OF_PERICENTER": 257.7673, "MEAN_ANOMALY": 180.8405, "EPHEMERIS_TYPE": 0, "CLASSIFICATION_TYPE": "U", "NORAD_CAT_ID": 66612, "ELEMENT_SET_NO": 999, "REV_AT_EPOCH": 453, "BSTAR": -0.039946146, "MEAN_MOTION_DOT": -0.01559004, "MEAN_MOTION_DDOT": 0}, "tle": {"line1": "1 66612U 25270AA  25347.58336806 -.01559004  00000+0 -39946-1 0  9994", "line2": "2 66612  42.9995 187.7600 0001938 257.7673 180.8405 15.41823084  4532"}}, "geometry": {"type": "Point", "coordinates": [124.49907390863696, -38.48419258492026]}}, {"type": "Feature", "properties": {"norad_id": 66613, "name": "STARLINK-36037", "group": "last-30-days", "lat": -25.77415986116844, "lon": 151.78097976105195, "alt_km": 443.67244527571074, "timestamp": "2025-12-14T09:36:21.779221+00:00", "meta": {"OBJECT_NAME": "STARLINK-36037", "OBJECT_ID": "2025-270AB", "EPOCH": "2025-12-13T14:00:03.000384", "MEAN_MOTION": 15.44889263, "ECCENTRICITY": 0.00016908, "INCLINATION": 42.9998, "RA_OF_ASC_NODE": 187.7162, "ARG_OF_PERICENTER": 264.4623, "MEAN_ANOMALY": 192.6287, "EPHEMERIS_TYPE": 0, "CLASSIFICATION_TYPE": "U", "NORAD_CAT_ID": 66613, "ELEMENT_SET_NO": 999, "REV_AT_EPOCH": 453, "BSTAR": -0.047447951, "MEAN_MOTION_DOT": -0.02031538, "MEAN_MOTION_DDOT": 0}, "tle": {"line1": "1 66613U 25270AB  25347.58336806 -.02031538  00000+0 -47448-1 0  9999", "line2": "2 66613  42.9998 187.7162 0001690 264.4623 192.6287 15.44889263  4537"}}, "geometry": {"type": "Point", "coordinates": [151.78097976105195, -25.77415986116844]}}, {"type": "Feature", "properties": {"norad_id": 66614, "name": "STARLINK-36040", "group": "last-30-days", "lat": -0.5483816933038836, "lon": -177.69331278225488, "alt_km": 414.72939343964026, "timestamp": "2025-12-14T09:36:21.779233+00:00", "meta": {"OBJECT_NAME": "STARLINK-36040", "OBJECT_ID": "2025-270AC", "EPOCH": "2025-12-13T14:00:03.000384", "MEAN_MOTION": 15.50496198, "ECCENTRICITY": 0.0001411, "INCLINATION": 42.9999, "RA_OF_ASC_NODE": 187.6744, "ARG_OF_PERICENTER": 262.559, "MEAN_ANOMALY": 211.3661, "EPHEMERIS_TYPE": 0, "CLASSIFICATION_TYPE": "U", "NORAD_CAT_ID": 66614, "ELEMENT_SET_NO": 999, "REV_AT_EPOCH": 437, "BSTAR": 0.0014480752, "MEAN_MOTION_DOT": 0.00085288, "MEAN_MOTION_DDOT": 0}, "tle": {"line1": "1 66614U 25270AC  25347.58336806  .00085288  00000+0  14481-2 0  9999", "line2": "2 66614  42.9999 187.6744 0001411 262.5590 211.3661 15.50496198  4372"}}, "geometry": {"type": "Point", "coordinates": [-177.69331278225488, -0.5483816933038836]}}, {"type": "Feature", "properties": {"norad_id": 66615, "name": "STARLINK-35988", "group": "last-30-days", "lat": -8.30037951162087, "lon": 173.91533488219267, "alt_km": 429.639600804222, "timestamp": "2025-12-14T09:36:21.779243+00:00", "meta": {"OBJECT_NAME": "STARLINK-35988", "OBJECT_ID": "2025-270AD", "EPOCH": "2025-12-13T14:00:03.000384", "MEAN_MOTION": 15.49385958, "ECCENTRICITY": 0.00012733, "INCLINATION": 43, "RA_OF_ASC_NODE": 187.6796, "ARG_OF_PERICENTER": 270.6092, "MEAN_ANOMALY": 200.765, "EPHEMERIS_TYPE": 0, "CLASSIFICATION_TYPE": "U", "NORAD_CAT_ID": 66615, "ELEMENT_SET_NO": 999, "REV_AT_EPOCH": 437, "BSTAR": -0.041626361, "MEAN_MOTION_DOT": -0.02080242, "MEAN_MOTION_DDOT": 0}, "tle": {"line1": "1 66615U 25270AD  25347.58336806 -.02080242  00000+0 -41626-1 0  9999", "line2": "2 66615  43.0000 187.6796 0001273 270.6092 200.7650 15.49385958  4377"}}, "geometry": {"type": "Point", "coordinates": [173.91533488219267, -8.30037951162087]}}, {"type": "Feature", "properties": {"norad_id": 66616, "name": "STARLINK-35391", "group": "last-30-days", "lat": 0.7722446475485405, "lon": -176.28057866172313, "alt_km": 414.6110105805119, "timestamp": "2025-12-14T09:36:21.779253+00:00", "meta": {"OBJECT_NAME": "STARLINK-35391", "OBJECT_ID": "2025-270AE", "EPOCH": "2025-12-13T14:00:03.000384", "MEAN_MOTION": 15.50514618, "ECCENTRICITY": 0.00015448, "INCLINATION": 43, "RA_OF_ASC_NODE": 187.6699, "ARG_OF_PERICENTER": 260.2835, "MEAN_ANOMALY": 215.538, "EPHEMERIS_TYPE": 0, "CLASSIFICATION_TYPE": "U", "NORAD_CAT_ID": 66616, "ELEMENT_SET_NO": 999, "REV_AT_EPOCH": 464, "BSTAR": 0.0013397351, "MEAN_MOTION_DOT": 0.00078869, "MEAN_MOTION_DDOT": 0}, "tle": {"line1": "1 66616U 25270AE  25347.58336806  .00078869  00000+0  13397-2 0  9993", "line2": "2 66616  43.0000 187.6699 0001544 260.2835 215.5380 15.50514618  4644"}}, "geometry": {"type": "Point", "coordinates": [-176.28057866172313, 0.7722446475485405]}}, {"type": "Feature", "properties": {"norad_id": 66617, "name": "STARLINK-35940", "group": "last-30-days", "lat": -5.072301167496398, "lon": 175.47926220469296, "alt_km": 424.22870242750196, "timestamp": "2025-12-14T09:36:21.779266+00:00", "meta": {"OBJECT_NAME": "STARLINK-35940", "OBJECT_ID": "2025-271A", "EPOCH": "2025-12-13T14:00:03.000384", "MEAN_MOTION": 15.49616445, "ECCENTRICITY": 9.748e-05, "INCLINATION": 53.16, "RA_OF_ASC_NODE": 183.1989, "ARG_OF_PERICENTER": 103.296, "MEAN_ANOMALY": 13.1259, "EPHEMERIS_TYPE": 0, "CLASSIFICATION_TYPE": "U", "NORAD_CAT_ID": 66617, "ELEMENT_SET_NO": 999, "REV_AT_EPOCH": 437, "BSTAR": -0.017560668, "MEAN_MOTION_DOT": -0.00909025, "MEAN_MOTION_DDOT": 0}, "tle": {"line1": "1 66617U 25271A   25347.58336806 -.00909025  00000+0 -17561-1 0  9990", "line2": "2 66617  53.1600 183.1989 0000974 103.2960  13.1259 15.49616445  4373"}}, "geometry": {"type": "Point", "coordinates": [175.47926220469296, -5.072301167496398]}}]}